0 FENGYUN 1C DEB
1 36191U 99025DTQ 13288.07624279  .00009348  00000-0  25727-2 0  1524
2 36191 098.9631 032.7587 0078303 005.0034 014.3805 14.45339165248739
